ATLANTIS                
1 42737U 98067MS  17206.22566009  .00020868  00000-0  28780-3 0  9991
2 42737  51.6374 207.8994 0009653  75.7380 284.4683 15.57119077  9213
LEMUR-2-ANGELA          
1 42752U 17019B   17206.26622675  .00000316  00000-0  24607-4 0  9993
2 42752  51.6404 217.7742 0011460 116.6977 243.5177 15.27490884  7117
LEMUR-2-JENNYBARNA      
1 42753U 17019C   17206.19968793  .00000831  00000-0  43347-4 0  9994
2 42753  51.6404 218.0804 0011354 116.1973 244.0175 15.27558562  7048
LEMUR-2-ROBMOORE        
1 42754U 17019D   17206.26827255  .00000279  00000-0  23276-4 0  9995
2 42754  51.6404 217.7866 0011418 119.1765 241.0358 15.27422512  7096
LEMUR-2-SPIROVISION     
1 42755U 17019E   17206.26753176  .00000676  00000-0  37806-4 0  9991
2 42755  51.6401 217.7811 0011380 118.9165 241.2957 15.27463532  6984
UCLSAT                  
1 42765U 17036A   17206.11911183  .00001120  00000-0  53988-4 0  9993
2 42765  97.4475 265.5138 0013337 136.6905 223.5381 15.20732518  5574
LITUANICASAT-2          
1 42768U 17036D   17206.20901116  .00001949  00000-0  94384-4 0  9995
2 42768  97.4471 265.5463 0017911 127.3069 232.9802 15.19613821  4871
INFLATESAIL             
1 42770U 17036F   17206.19030297  .00148712  00000-0  51875-2 0  9995
2 42770  97.4487 265.7233 0016150 171.6867 188.4644 15.28872782  4816
LEMUR-2-SHAINAJOHL      
1 42771U 17036G   17206.20541929  .00001778  00000-0  86004-4 0  9991
2 42771  97.4476 265.5519 0016930 126.3688 233.9112 15.19779394  4815
LEMUR-2-XUENITERENCE    
1 42772U 17036H   17206.20423518  .00001720  00000-0  83204-4 0  9991
2 42772  97.4475 265.5530 0016646 125.8478 234.4306 15.19833477  4817
LEMUR-2-LUCYBRYCE       
1 42773U 17036J   17206.20320528  .00001870  00000-0  90049-4 0  9990
2 42773  97.4472 265.5549 0016468 125.9169 234.3597 15.19885257  4819
LEMUR-2-KUNGFOO         
1 42774U 17036K   17206.20267901  .00001391  00000-0  67765-4 0  9993
2 42774  97.4477 265.5566 0016332 125.7518 234.5239 15.19899613  4805
AALTO-1                 
1 42775U 17036L   17206.20059222  .00000812  00000-0  40805-4 0  9992
2 42775  97.4476 265.5590 0015904 124.5877 235.6861 15.19974413  4817
URSA MAIOR              
1 42776U 17036M   17206.19981693  .00000838  00000-0  41970-4 0  9999
2 42776  97.4478 265.5611 0015783 124.9361 235.3359 15.20011870  4811
COMPASS 2               
1 42777U 17036N   17206.12864023  .00001434  00000-0  69061-4 0  9994
2 42777  97.4487 265.5073 0014816 129.1370 231.1185 15.20291430  4797
LEMUR-2-LYNSEY-SYMO     
1 42779U 17036Q   17206.12458736  .00001376  00000-0  66003-4 0  9994
2 42779  97.4479 265.5088 0014278 135.1352 225.1040 15.20487235  4787
LEMUR-2-LISASAURUS      
1 42780U 17036R   17206.12399390  .00001390  00000-0  66629-4 0  9996
2 42780  97.4477 265.5082 0014125 134.9353 225.3031 15.20509587  4798
LEMUR-2-SAM-AMELIA      
1 42781U 17036S   17206.12359700  .00001565  00000-0  74567-4 0  9992
2 42781  97.4476 265.5082 0014094 135.2481 224.9894 15.20540126  4784
LEMUR-2-MCPEAKE         
1 42782U 17036T   17206.12300802  .00001542  00000-0  73448-4 0  9994
2 42782  97.4478 265.5100 0013958 135.0753 225.1614 15.20567050  4784
DIAMOND RED             
1 42783U 17036U   17206.12236793  .00000930  00000-0  45564-4 0  9990
2 42783  97.4476 265.5101 0013941 136.5828 223.6507 15.20568970  4792
PEGASUS                 
1 42784U 17036V   17206.12178988  .00001036  00000-0  50342-4 0  9990
2 42784  97.4477 265.5114 0013866 136.7418 223.4908 15.20602046  4797
DIAMOND GREEN           
1 42785U 17036W   17206.12156878  .00000722  00000-0  36054-4 0  9990
2 42785  97.4478 265.5120 0013808 136.6520 223.5804 15.20606062  4861
DIAMOND BLUE            
1 42786U 17036X   17206.12057228  .00000593  00000-0  30128-4 0  9992
2 42786  97.4477 265.5129 0013626 136.9547 223.2756 15.20651717  4860
NUDTSAT                 
1 42787U 17036Y   17206.11971499  .00001522  00000-0  72199-4 0  9994
2 42787  97.4477 265.5136 0013548 137.0594 223.1701 15.20721592  4639
SUCHAI                  
1 42788U 17036Z   17206.11995476  .00001216  00000-0  58384-4 0  9996
2 42788  97.4476 265.5132 0013529 136.8910 223.3387 15.20696394  4861
SKCUBE                  
1 42789U 17036AA  17206.11905659  .00001150  00000-0  55336-4 0  9992
2 42789  97.4475 265.5141 0013337 136.7827 223.4458 15.20736881  4781
VZLUSAT-1               
1 42790U 17036AB  17206.11759655  .00001327  00000-0  63226-4 0  9990
2 42790  97.4473 265.5147 0013078 137.1249 223.1008 15.20813685  4788
ROBUSTA-1B              
1 42792U 17036AD  17206.11652162  .00001171  00000-0  56064-4 0  9996
2 42792  97.4473 265.5160 0012875 137.7977 222.4252 15.20858934  4793
CICERO 6                
1 42793U 17036AE  17206.17797123  .00000873  00000-0  42382-4 0  9996
2 42793  97.4472 265.5866 0011911 137.8184 222.3970 15.21051870  4877
D-SAT                   
1 42794U 17036AF  17206.11059648  .00000700  00000-0  34544-4 0  9994
2 42794  97.4470 265.5226 0011120 135.1436 225.0701 15.21122714  4787
1998-067MU              
1 42820U 98067MU  17206.22116100  .00009484  00000-0  14441-3 0  9997
2 42820  51.6382 208.6182 0004230  33.6615 326.4644 15.55241830  2783
1998-067MV              
1 42821U 98067MV  17206.02880374  .00008537  00000-0  13093-3 0  9997
2 42821  51.6381 209.5833 0004262  35.0306 325.0965 15.55195151  2734
1998-067MW              
1 42822U 98067MW  17206.22189771  .00009531  00000-0  14543-3 0  9999
2 42822  51.6383 208.6235 0004315  37.3856 322.7434 15.55175424  2777
1998-067MX              
1 42823U 98067MX  17206.22244230  .00009359  00000-0  14309-3 0  9990
2 42823  51.6386 208.6281 0008017  49.1178 311.0506 15.55130764  2750
1998-067MY              
1 42824U 98067MY  17206.22303726  .00009360  00000-0  14339-3 0  9992
2 42824  51.6385 208.6321 0007809  50.1826 309.9852 15.55077024  2743
FLOCK 2K-03             
1 42850U 17042AB  17206.04688197  .00001139  00000-0  38707-4 0  9995
2 42850  97.0017 114.4742 0011410 208.7964 151.2650 15.32328536  1459
FLOCK 2K-04             
1 42851U 17042AC  17206.24286831  .00001469  00000-0  49312-4 0  9997
2 42851  97.0019 114.6598 0011108 207.9689 152.0959 15.32303625  1488
FLOCK 2K-01             
1 42852U 17042AD  17206.24268634  .00001463  00000-0  49078-4 0  9992
2 42852  97.0019 114.6600 0011076 207.4590 152.6069 15.32329922  1489
FLOCK 2K-02             
1 42853U 17042AE  17206.24263823  .00001502  00000-0  50315-4 0  9998
2 42853  97.0021 114.6604 0010944 207.0679 152.9994 15.32337291  1482
FLOCK 2K-47             
1 42854U 17042AF  17206.24239393  .00001489  00000-0  49868-4 0  9999
2 42854  97.0016 114.6600 0010962 206.2929 153.7759 15.32372268  1483
FLOCK 2K-48             
1 42855U 17042AG  17206.24231141  .00001470  00000-0  49239-4 0  9995
2 42855  97.0019 114.6606 0010949 206.1531 153.9160 15.32384050  1486
FLOCK 2K-45             
1 42856U 17042AH  17206.24214544  .00001466  00000-0  49065-4 0  9996
2 42856  97.0018 114.6605 0010976 205.8111 154.2585 15.32407997  1486
FLOCK 2K-24             
1 42857U 17042AJ  17206.24190030  .00001485  00000-0  49624-4 0  9992
2 42857  97.0016 114.6605 0010912 205.1363 154.9350 15.32443520  1486
FLOCK 2K-46             
1 42858U 17042AK  17206.24187452  .00001481  00000-0  49472-4 0  9994
2 42858  97.0020 114.6613 0011050 205.1931 154.8774 15.32446720  1480
FLOCK 2K-23             
1 42859U 17042AL  17206.24184070  .00001458  00000-0  48733-4 0  9991
2 42859  97.0019 114.6612 0011005 205.0884 154.9825 15.32451580  1482
FLOCK 2K-21             
1 42860U 17042AM  17206.24166909  .00001436  00000-0  48005-4 0  9992
2 42860  97.0019 114.6614 0010991 204.5859 155.4861 15.32476474  1480
FLOCK 2K-22             
1 42861U 17042AN  17206.24147739  .00001491  00000-0  49717-4 0  9995
2 42861  97.0020 114.6618 0011051 204.4069 155.6652 15.32504544  1487
FLOCK 2K-07             
1 42862U 17042AP  17206.24118902  .00001482  00000-0  49378-4 0  9999
2 42862  97.0019 114.6620 0011163 203.7090 156.3640 15.32545795  1498
FLOCK 2K-08             
1 42863U 17042AQ  17206.24108081  .00001494  00000-0  49714-4 0  9994
2 42863  97.0017 114.6615 0011199 203.9672 156.1051 15.32561810  1487
FLOCK 2K-05             
1 42864U 17042AR  17206.24087692  .00001497  00000-0  49764-4 0  9997
2 42864  97.0018 114.6623 0011275 203.7035 156.3690 15.32591235  1489
FLOCK 2K-40             
1 42865U 17042AS  17206.24078525  .00001512  00000-0  50237-4 0  9998
2 42865  97.0019 114.6626 0011194 203.9728 156.0996 15.32604632  1487
FLOCK 2K-39             
1 42866U 17042AT  17206.24074167  .00001507  00000-0  50046-4 0  9999
2 42866  97.0018 114.6623 0011266 203.7052 156.3673 15.32610362  1484
FLOCK 2K-37             
1 42867U 17042AU  17206.17542068  .00001493  00000-0  49605-4 0  9995
2 42867  97.0018 114.6008 0011186 203.8288 156.2439 15.32614944  1473
FLOCK 2K-38             
1 42868U 17042AV  17206.24050280  .00001504  00000-0  49914-4 0  9990
2 42868  97.0019 114.6629 0011284 203.5551 156.5177 15.32645296  1480
FLOCK 2K-31             
1 42869U 17042AW  17206.24029666  .00001512  00000-0  50110-4 0  9994
2 42869  97.0018 114.6627 0011362 203.4589 156.6137 15.32675154  1488
FLOCK 2K-32             
1 42870U 17042AX  17206.24016049  .00001515  00000-0  50185-4 0  9992
2 42870  97.0018 114.6633 0011392 203.7683 156.3036 15.32694814  1487
FLOCK 2K-29             
1 42871U 17042AY  17206.24010815  .00001519  00000-0  50282-4 0  9990
2 42871  97.0019 114.6636 0011388 203.4369 156.6356 15.32702408  1482
FLOCK 2K-30             
1 42872U 17042AZ  17206.23985753  .00001504  00000-0  49774-4 0  9990
2 42872  97.0018 114.6634 0011489 203.7458 156.3256 15.32738509  1470
FLOCK 2K-44             
1 42873U 17042BA  17206.23944242  .00001370  00000-0  45415-4 0  9998
2 42873  97.0019 114.6647 0012494 193.7342 166.3563 15.32797803  1488
